{
  "type": "FeatureCollection",
  "features": [
    {
      "type": "Feature",
      "properties": {
        "norad_id": 33376,
        "name": "GALAXY 19 (G-19)",
        "group": "intelsat",
        "lat": -0.025757283977511373,
        "lon": -172.08492669213203,
        "alt_km": 35784.72034671522,
        "timestamp": "2025-12-08T13:49:31.460994+00:00",
        "meta_object_name": "GALAXY 19 (G-19)",
        "meta_object_id": "2008-045A",
        "meta_epoch": "2025-12-08T06:02:16.852416",
        "meta_mean_motion": 1.00269875,
        "meta_eccentricity": 0.00033885,
        "meta_inclination": 0.0168,
        "meta_ra_of_asc_node": 305.4032,
        "meta_arg_of_pericenter": 324.9632,
        "meta_mean_anomaly": 160.4637,
        "meta_ephemeris_type": 0,
        "meta_classification_type": "U",
        "meta_norad_cat_id": 33376,
        "meta_element_set_no": 999,
        "meta_rev_at_epoch": 6298,
        "meta_bstar": 0,
        "meta_mean_motion_dot": -1.36e-06,
        "meta_mean_motion_ddot": 0,
        "tle_line1": "1 33376U 08045A   25342.25158394 -.00000136  00000+0  00000+0 0  9991",
        "tle_line2": "2 33376   0.0168 305.4032 0003388 324.9632 160.4637  1.00269875 62987"
      },
      "geometry": {
        "type": "Point",
        "coordinates": [
          -172.08492669213203,
          -0.025757283977511373
        ]
      }
    },
    {
      "type": "Feature",
      "properties": {
        "norad_id": 35493,
        "name": "FM-5",
        "group": "intelsat",
        "lat": -0.029756198395346246,
        "lon": -161.1818861615066,
        "alt_km": 35783.354656087715,
        "timestamp": "2025-12-08T13:49:31.461007+00:00",
        "meta_object_name": "FM-5",
        "meta_object_id": "2009-034A",
        "meta_epoch": "2025-12-08T01:12:31.300128",
        "meta_mean_motion": 1.00271963,
        "meta_eccentricity": 6.781e-05,
        "meta_inclination": 0.0193,
        "meta_ra_of_asc_node": 289.5767,
        "meta_arg_of_pericenter": 251.7714,
        "meta_mean_anomaly": 187.7034,
        "meta_ephemeris_type": 0,
        "meta_classification_type": "U",
        "meta_norad_cat_id": 35493,
        "meta_element_set_no": 999,
        "meta_rev_at_epoch": 4472,
        "meta_bstar": 0,
        "meta_mean_motion_dot": -1.97e-06,
        "meta_mean_motion_ddot": 0,
        "tle_line1": "1 35493U 09034A   25342.05036227 -.00000197  00000+0  00000+0 0  9997",
        "tle_line2": "2 35493   0.0193 289.5767 0000678 251.7714 187.7034  1.00271963 44727"
      },
      "geometry": {
        "type": "Point",
        "coordinates": [
          -161.1818861615066,
          -0.029756198395346246
        ]
      }
    },
    {
      "type": "Feature",
      "properties": {
        "norad_id": 36097,
        "name": "INTELSAT 14 (IS-14)",
        "group": "intelsat",
        "lat": -0.03139115755016845,
        "lon": -120.04685953178908,
        "alt_km": 35775.93362576053,
        "timestamp": "2025-12-08T13:49:31.461019+00:00",
        "meta_object_name": "INTELSAT 14 (IS-14)",
        "meta_object_id": "2009-064A",
        "meta_epoch": "2025-12-08T06:32:30.651936",
        "meta_mean_motion": 1.00270661,
        "meta_eccentricity": 0.00027086,
        "meta_inclination": 0.0099,
        "meta_ra_of_asc_node": 327.5541,
        "meta_arg_of_pericenter": 296.1508,
        "meta_mean_anomaly": 226.7144,
        "meta_ephemeris_type": 0,
        "meta_classification_type": "U",
        "meta_norad_cat_id": 36097,
        "meta_element_set_no": 999,
        "meta_rev_at_epoch": 5869,
        "meta_bstar": 0,
        "meta_mean_motion_dot": -2.71e-06,
        "meta_mean_motion_ddot": 0,
        "tle_line1": "1 36097U 09064A   25342.27257699 -.00000271  00000+0  00000+0 0  9996",
        "tle_line2": "2 36097   0.0099 327.5541 0002708 296.1508 226.7144  1.00270661 58697"
      },
      "geometry": {
        "type": "Point",
        "coordinates": [
          -120.04685953178908,
          -0.03139115755016845
        ]
      }
    },
    {
      "type": "Feature",
      "properties": {
        "norad_id": 36106,
        "name": "INTELSAT 15 (IS-15)",
        "group": "intelsat",
        "lat": 0.008165999964186885,
        "lon": 10.13571087224167,
        "alt_km": 35789.70487853651,
        "timestamp": "2025-12-08T13:49:31.461030+00:00",
        "meta_object_name": "INTELSAT 15 (IS-15)",
        "meta_object_id": "2009-067A",
        "meta_epoch": "2025-12-08T07:09:27.115200",
        "meta_mean_motion": 1.00270231,
        "meta_eccentricity": 0.00024729,
        "meta_inclination": 0.0135,
        "meta_ra_of_asc_node": 6.1088,
        "meta_arg_of_pericenter": 256.4158,
        "meta_mean_anomaly": 7.2984,
        "meta_ephemeris_type": 0,
        "meta_classification_type": "U",
        "meta_norad_cat_id": 36106,
        "meta_element_set_no": 999,
        "meta_rev_at_epoch": 3931,
        "meta_bstar": 0,
        "meta_mean_motion_dot": -1.82e-06,
        "meta_mean_motion_ddot": 0,
        "tle_line1": "1 36106U 09067A   25342.29823050 -.00000182  00000+0  00000+0 0  9993",
        "tle_line2": "2 36106   0.0135   6.1088 0002472 256.4158   7.2984  1.00270231 39318"
      },
      "geometry": {
        "type": "Point",
        "coordinates": [
          10.13571087224167,
          0.008165999964186885
        ]
      }
    },
    {
      "type": "Feature",
      "properties": {
        "norad_id": 36131,
        "name": "DIRECTV 12",
        "group": "intelsat",
        "lat": 0.018542088735870117,
        "lon": -177.7665641339326,
        "alt_km": 35788.314959041374,
        "timestamp": "2025-12-08T13:49:31.461042+00:00",
        "meta_object_name": "DIRECTV 12",
        "meta_object_id": "2009-075A",
        "meta_epoch": "2025-12-08T05:59:12.158592",
        "meta_mean_motion": 1.00271707,
        "meta_eccentricity": 5.359e-05,
        "meta_inclination": 0.0428,
        "meta_ra_of_asc_node": 139.5638,
        "meta_arg_of_pericenter": 212.1136,
        "meta_mean_anomaly": 72.6596,
        "meta_ephemeris_type": 0,
        "meta_classification_type": "U",
        "meta_norad_cat_id": 36131,
        "meta_element_set_no": 999,
        "meta_rev_at_epoch": 4463,
        "meta_bstar": 0,
        "meta_mean_motion_dot": -1.01e-06,
        "meta_mean_motion_ddot": 0,
        "tle_line1": "1 36131U 09075A   25342.24944628 -.00000101  00000+0  00000+0 0  9991",
        "tle_line2": "2 36131   0.0428 139.5638 0000535 212.1136  72.6596  1.00271707 44631"
      },
      "geometry": {
        "type": "Point",
        "coordinates": [
          -177.7665641339326,
          0.018542088735870117
        ]
      }
    },
    {
      "type": "Feature",
      "properties": {
        "norad_id": 36397,
        "name": "INTELSAT 16 (IS-16)",
        "group": "intelsat",
        "lat": -0.033604312460870187,
        "lon": -151.26268588779752,
        "alt_km": 35780.38853157782,
        "timestamp": "2025-12-08T13:49:31.461053+00:00",
        "meta_object_name": "INTELSAT 16 (IS-16)",
        "meta_object_id": "2010-006A",
        "meta_epoch": "2025-12-08T06:13:46.013376",
        "meta_mean_motion": 1.00270495,
        "meta_eccentricity": 0.00023331,
        "meta_inclination": 0.0184,
        "meta_ra_of_asc_node": 303.6194,
        "meta_arg_of_pericenter": 317.0913,
        "meta_mean_anomaly": 193.8028,
        "meta_ephemeris_type": 0,
        "meta_classification_type": "U",
        "meta_norad_cat_id": 36397,
        "meta_element_set_no": 999,
        "meta_rev_at_epoch": 5774,
        "meta_bstar": 0,
        "meta_mean_motion_dot": -2.42e-06,
        "meta_mean_motion_ddot": 0,
        "tle_line1": "1 36397U 10006A   25342.25956034 -.00000242  00000+0  00000+0 0  9992",
        "tle_line2": "2 36397   0.0184 303.6194 0002333 317.0913 193.8028  1.00270495 57746"
      },
      "geometry": {
        "type": "Point",
        "coordinates": [
          -151.26268588779752,
          -0.033604312460870187
        ]
      }
    },
    {
      "type": "Feature",
      "properties": {
        "norad_id": 37185,
        "name": "XM-5",
        "group": "intelsat",
        "lat": -0.06256353306020009,
        "lon": 169.77245523584864,
        "alt_km": 35780.01183906143,
        "timestamp": "2025-12-08T13:49:31.461065+00:00",
        "meta_object_name": "XM-5",
        "meta_object_id": "2010-053A",
        "meta_epoch": "2025-12-08T05:52:25.053024",
        "meta_mean_motion": 1.00270611,
        "meta_eccentricity": 0.00015753,
        "meta_inclination": 0.0633,
        "meta_ra_of_asc_node": 272.7253,
        "meta_arg_of_pericenter": 242.5035,
        "meta_mean_anomaly": 254.9421,
        "meta_ephemeris_type": 0,
        "meta_classification_type": "U",
        "meta_norad_cat_id": 37185,
        "meta_element_set_no": 999,
        "meta_rev_at_epoch": 5556,
        "meta_bstar": 0,
        "meta_mean_motion_dot": -2e-07,
        "meta_mean_motion_ddot": 0,
        "tle_line1": "1 37185U 10053A   25342.24473441 -.00000020  00000+0  00000+0 0  9999",
        "tle_line2": "2 37185   0.0633 272.7253 0001575 242.5035 254.9421  1.00270611 55561"
      },
      "geometry": {
        "type": "Point",
        "coordinates": [
          169.77245523584864,
          -0.06256353306020009
        ]
      }
    }
  ]
}